[
    {
        "Altitude(m)": 605459.0624492893,
        "Argument of Periapsis(deg)": 0.0,
        "Eccentricity": 0.0,
        "Inclination(deg)": 60.0,
        "Latitude(deg)": 27.98832326508256,
        "Longitude(deg)": 127.79861131264568,
        "Mean Anomaly(deg)": 32.72730000000001,
        "RAAN(deg)": 210.0,
        "Satellite Name": "Test1 926",
        "Satellite Number": 926,
        "Semi-Major Axis(m)": 6980739.136638005,
        "Time(s)": 0
    },
    {
        "Altitude(m)": 605535.8537722784,
        "Argument of Periapsis(deg)": 0.00010418945913296404,
        "Eccentricity": 0.0,
        "Inclination(deg)": 60.0,
        "Latitude(deg)": 28.501452447971126,
        "Longitude(deg)": 128.15555733199832,
        "Mean Anomaly(deg)": 33.34740614546182,
        "RAAN(deg)": 209.99957995086027,
        "Satellite Name": "Test1 926",
        "Satellite Number": 926,
        "Semi-Major Axis(m)": 6980739.136638005,
        "Time(s)": 10
    }
]